DUPLEX                  
1 66906U 98067XS  26017.86130802  .00025041  00000+0  40595-3 0  9998
2 66906  51.6322 322.9987 0002113  26.6605 333.4493 15.52608532  7227
1998-067XT              
1 66907U 98067XT  26017.99509291  .00071802  00000+0  98180-3 0  9994
2 66907  51.6304 321.6422 0003542  78.2963 281.8426 15.56769196  7258
1998-067XU              
1 66908U 98067XU  26017.54491488  .00069291  00000+0  95264-3 0  9993
2 66908  51.6305 323.8847 0003502  70.7927 289.3443 15.56637912  7182
SILVERSAT               
1 66909U 98067XV  26017.85590617  .00082147  00000+0  10914-2 0  9995
2 66909  51.6304 322.2122 0003736  82.9581 277.1836 15.57482003  7238
1998-067XW              
1 66910U 98067XW  26017.28056132  .00077594  00000+0  10528-2 0  9994
2 66910  51.6293 325.1176 0002476  56.8464 303.2765 15.56947427  7145
1998-067XX              
1 66911U 98067XX  26017.84064387  .00094209  00000+0  12102-2 0  9990
2 66911  51.6295 322.1088 0002516  80.7962 279.3315 15.58323007  7228
1998-067XY              
1 66912U 98067XY  26017.82404830  .00053900  00000+0  78429-3 0  9998
2 66912  51.6314 322.7489 0003333  57.1817 302.9494 15.55207763  7214
