CCSDS_OMM_VERS = 2.0
CREATION_DATE  = 
ORIGINATOR     = 

OBJECT_NAME    = DUPLEX
OBJECT_ID      = 1998-067XS
CENTER_NAME    = EARTH
REF_FRAME      = TEME
TIME_SYSTEM    = UTC
MEAN_ELEMENT_THEORY = SGP/SGP4

EPOCH          = 2026-01-17T20:40:17.012928
MEAN_MOTION    = 15.52608532
ECCENTRICITY   = .00021134
INCLINATION    = 51.6322
RA_OF_ASC_NODE = 322.9987
ARG_OF_PERICENTER = 26.6605
MEAN_ANOMALY   = 333.4493

EPHEMERIS_TYPE = 0
CLASSIFICATION_TYPE = U
NORAD_CAT_ID   = 66906
ELEMENT_SET_NO = 999
REV_AT_EPOCH   = 722
BSTAR          = .40594752E-3
MEAN_MOTION_DOT = .25041E-3
MEAN_MOTION_DDOT = 0

CCSDS_OMM_VERS = 2.0
CREATION_DATE  = 
ORIGINATOR     = 

OBJECT_NAME    = 1998-067XT
OBJECT_ID      = 1998-067XT
CENTER_NAME    = EARTH
REF_FRAME      = TEME
TIME_SYSTEM    = UTC
MEAN_ELEMENT_THEORY = SGP/SGP4

EPOCH          = 2026-01-17T23:52:56.027424
MEAN_MOTION    = 15.56769196
ECCENTRICITY   = .00035421
INCLINATION    = 51.6304
RA_OF_ASC_NODE = 321.6422
ARG_OF_PERICENTER = 78.2963
MEAN_ANOMALY   = 281.8426

EPHEMERIS_TYPE = 0
CLASSIFICATION_TYPE = U
NORAD_CAT_ID   = 66907
ELEMENT_SET_NO = 999
REV_AT_EPOCH   = 725
BSTAR          = .98180417E-3
MEAN_MOTION_DOT = .71802E-3
MEAN_MOTION_DDOT = 0

CCSDS_OMM_VERS = 2.0
CREATION_DATE  = 
ORIGINATOR     = 

OBJECT_NAME    = 1998-067XU
OBJECT_ID      = 1998-067XU
CENTER_NAME    = EARTH
REF_FRAME      = TEME
TIME_SYSTEM    = UTC
MEAN_ELEMENT_THEORY = SGP/SGP4

EPOCH          = 2026-01-17T13:04:40.645632
MEAN_MOTION    = 15.56637912
ECCENTRICITY   = .0003502
INCLINATION    = 51.6305
RA_OF_ASC_NODE = 323.8847
ARG_OF_PERICENTER = 70.7927
MEAN_ANOMALY   = 289.3443

EPHEMERIS_TYPE = 0
CLASSIFICATION_TYPE = U
NORAD_CAT_ID   = 66908
ELEMENT_SET_NO = 999
REV_AT_EPOCH   = 718
BSTAR          = .95263887E-3
MEAN_MOTION_DOT = .69291E-3
MEAN_MOTION_DDOT = 0

CCSDS_OMM_VERS = 2.0
CREATION_DATE  = 
ORIGINATOR     = 

OBJECT_NAME    = SILVERSAT
OBJECT_ID      = 1998-067XV
CENTER_NAME    = EARTH
REF_FRAME      = TEME
TIME_SYSTEM    = UTC
MEAN_ELEMENT_THEORY = SGP/SGP4

EPOCH          = 2026-01-17T20:32:30.293088
MEAN_MOTION    = 15.57482003
ECCENTRICITY   = .0003736
INCLINATION    = 51.6304
RA_OF_ASC_NODE = 322.2122
ARG_OF_PERICENTER = 82.9581
MEAN_ANOMALY   = 277.1836

EPHEMERIS_TYPE = 0
CLASSIFICATION_TYPE = U
NORAD_CAT_ID   = 66909
ELEMENT_SET_NO = 999
REV_AT_EPOCH   = 723
BSTAR          = .10914263E-2
MEAN_MOTION_DOT = .82147E-3
MEAN_MOTION_DDOT = 0

CCSDS_OMM_VERS = 2.0
CREATION_DATE  = 
ORIGINATOR     = 

OBJECT_NAME    = 1998-067XW
OBJECT_ID      = 1998-067XW
CENTER_NAME    = EARTH
REF_FRAME      = TEME
TIME_SYSTEM    = UTC
MEAN_ELEMENT_THEORY = SGP/SGP4

EPOCH          = 2026-01-17T06:44:00.498048
MEAN_MOTION    = 15.56947427
ECCENTRICITY   = .00024765
INCLINATION    = 51.6293
RA_OF_ASC_NODE = 325.1176
ARG_OF_PERICENTER = 56.8464
MEAN_ANOMALY   = 303.2765

EPHEMERIS_TYPE = 0
CLASSIFICATION_TYPE = U
NORAD_CAT_ID   = 66910
ELEMENT_SET_NO = 999
REV_AT_EPOCH   = 714
BSTAR          = .10527961E-2
MEAN_MOTION_DOT = .77594E-3
MEAN_MOTION_DDOT = 0

CCSDS_OMM_VERS = 2.0
CREATION_DATE  = 
ORIGINATOR     = 

OBJECT_NAME    = 1998-067XX
OBJECT_ID      = 1998-067XX
CENTER_NAME    = EARTH
REF_FRAME      = TEME
TIME_SYSTEM    = UTC
MEAN_ELEMENT_THEORY = SGP/SGP4

EPOCH          = 2026-01-17T20:10:31.630368
MEAN_MOTION    = 15.58323007
ECCENTRICITY   = .00025162
INCLINATION    = 51.6295
RA_OF_ASC_NODE = 322.1088
ARG_OF_PERICENTER = 80.7962
MEAN_ANOMALY   = 279.3315

EPHEMERIS_TYPE = 0
CLASSIFICATION_TYPE = U
NORAD_CAT_ID   = 66911
ELEMENT_SET_NO = 999
REV_AT_EPOCH   = 722
BSTAR          = .12102185E-2
MEAN_MOTION_DOT = .94209E-3
MEAN_MOTION_DDOT = 0

CCSDS_OMM_VERS = 2.0
CREATION_DATE  = 
ORIGINATOR     = 

OBJECT_NAME    = 1998-067XY
OBJECT_ID      = 1998-067XY
CENTER_NAME    = EARTH
REF_FRAME      = TEME
TIME_SYSTEM    = UTC
MEAN_ELEMENT_THEORY = SGP/SGP4

EPOCH          = 2026-01-17T19:46:37.773120
MEAN_MOTION    = 15.55207763
ECCENTRICITY   = .00033338
INCLINATION    = 51.6314
RA_OF_ASC_NODE = 322.7489
ARG_OF_PERICENTER = 57.1817
MEAN_ANOMALY   = 302.9494

EPHEMERIS_TYPE = 0
CLASSIFICATION_TYPE = U
NORAD_CAT_ID   = 66912
ELEMENT_SET_NO = 999
REV_AT_EPOCH   = 721
BSTAR          = .784294E-3
MEAN_MOTION_DOT = .539E-3
MEAN_MOTION_DDOT = 0

